ARIANE 40 R/B           
1 20443U 90005H   25329.78244108  .00000388  00000+0  13719-3 0  9994
2 20443  98.3266  28.4380 0010778 152.1718 208.0049 14.39779454877853
DELTA 2 R/B(1)          
1 20453U 90008B   25329.74871111  .00040013  00000+0  67378-3 0  9993
2 20453  35.6052 130.1078 0114317  22.9739 337.6052 15.43554414910008
COSMOS 2058             
1 20465U 90010A   25329.73128020  .00004991  00000+0  30318-3 0  9991
2 20465  82.4631 149.7634 0009357 342.2684  17.8217 15.10252535926541
SL-14 R/B               
1 20466U 90010B   25329.81507441  .00000533  00000+0  61858-4 0  9991
2 20466  82.5031   4.9428 0018289 283.2192  76.6982 14.83448418913085
SL-14 R/B               
1 20511U 90018B   25329.46298737  .00000580  00000+0  69920-4 0  9996
2 20511  82.5199 320.5147 0017954  76.4587 283.8626 14.82020512907141
HST                     
1 20580U 90037B   25329.48253684  .00009134  00000+0  31969-3 0  9992
2 20580  28.4701  29.9158 0002001  58.7952 301.2839 15.27702932757353
SL-16 R/B               
1 20625U 90046B   25329.77969733  .00000250  00000+0  15381-3 0  9993
2 20625  70.9963 156.1388 0012246 105.0628 255.1850 14.14992024833691
COSMOS 2084             
1 20663U 90055A   25329.55783609  .00003355  00000+0  24742-3 0  9997
2 20663  62.7910 330.5312 0034438 172.5921 187.5696 15.04862052920646
SL-6 R/B(2)             
1 20666U 90055D   25329.73543483  .00003054  00000+0  24035-3 0  9995
2 20666  62.7830 247.1873 0011330 295.1265  64.8658 15.02961287922560
SL-8 R/B                
1 20775U 90078B   25329.82348003  .00026704  00000+0  82671-3 0  9999
2 20775  82.9053 344.4400 0377408   2.6799 357.6316 14.84903531793863
SL-8 R/B                
1 21088U 91006B   25329.82744837  .00000120  00000+0  10512-3 0  9993
2 21088  82.9429 247.2916 0021889 329.6987  96.5751 13.77487153749771
OKEAN-3                 
1 21397U 91039A   25329.78362190  .00005256  00000+0  37835-3 0  9997
2 21397  82.5175  77.4557 0013904 328.5717  31.4677 15.03951373849418
