CCSDS_OMM_VERS = 2.0
CREATION_DATE  = 
ORIGINATOR     = 

OBJECT_NAME    = ARIANE 40 R/B
OBJECT_ID      = 1990-005H
CENTER_NAME    = EARTH
REF_FRAME      = TEME
TIME_SYSTEM    = UTC
MEAN_ELEMENT_THEORY = SGP/SGP4

EPOCH          = 2025-11-25T18:46:42.909312
MEAN_MOTION    = 14.39779454
ECCENTRICITY   = .0010778
INCLINATION    = 98.3266
RA_OF_ASC_NODE = 28.4380
ARG_OF_PERICENTER = 152.1718
MEAN_ANOMALY   = 208.0049

EPHEMERIS_TYPE = 0
CLASSIFICATION_TYPE = U
NORAD_CAT_ID   = 20443
ELEMENT_SET_NO = 999
REV_AT_EPOCH   = 87785
BSTAR          = .13719E-3
MEAN_MOTION_DOT = .388E-5
MEAN_MOTION_DDOT = 0

CCSDS_OMM_VERS = 2.0
CREATION_DATE  = 
ORIGINATOR     = 

OBJECT_NAME    = DELTA 2 R/B(1)
OBJECT_ID      = 1990-008B
CENTER_NAME    = EARTH
REF_FRAME      = TEME
TIME_SYSTEM    = UTC
MEAN_ELEMENT_THEORY = SGP/SGP4

EPOCH          = 2025-11-25T17:58:08.639904
MEAN_MOTION    = 15.43554414
ECCENTRICITY   = .0114317
INCLINATION    = 35.6052
RA_OF_ASC_NODE = 130.1078
ARG_OF_PERICENTER = 22.9739
MEAN_ANOMALY   = 337.6052

EPHEMERIS_TYPE = 0
CLASSIFICATION_TYPE = U
NORAD_CAT_ID   = 20453
ELEMENT_SET_NO = 999
REV_AT_EPOCH   = 91000
BSTAR          = .67378E-3
MEAN_MOTION_DOT = .40013E-3
MEAN_MOTION_DDOT = 0

CCSDS_OMM_VERS = 2.0
CREATION_DATE  = 
ORIGINATOR     = 

OBJECT_NAME    = COSMOS 2058
OBJECT_ID      = 1990-010A
CENTER_NAME    = EARTH
REF_FRAME      = TEME
TIME_SYSTEM    = UTC
MEAN_ELEMENT_THEORY = SGP/SGP4

EPOCH          = 2025-11-25T17:33:02.609280
MEAN_MOTION    = 15.10252535
ECCENTRICITY   = .0009357
INCLINATION    = 82.4631
RA_OF_ASC_NODE = 149.7634
ARG_OF_PERICENTER = 342.2684
MEAN_ANOMALY   = 17.8217

EPHEMERIS_TYPE = 0
CLASSIFICATION_TYPE = U
NORAD_CAT_ID   = 20465
ELEMENT_SET_NO = 999
REV_AT_EPOCH   = 92654
BSTAR          = .30318E-3
MEAN_MOTION_DOT = .4991E-4
MEAN_MOTION_DDOT = 0

CCSDS_OMM_VERS = 2.0
CREATION_DATE  = 
ORIGINATOR     = 

OBJECT_NAME    = SL-14 R/B
OBJECT_ID      = 1990-010B
CENTER_NAME    = EARTH
REF_FRAME      = TEME
TIME_SYSTEM    = UTC
MEAN_ELEMENT_THEORY = SGP/SGP4

EPOCH          = 2025-11-25T19:33:42.429024
MEAN_MOTION    = 14.83448418
ECCENTRICITY   = .0018289
INCLINATION    = 82.5031
RA_OF_ASC_NODE = 4.9428
ARG_OF_PERICENTER = 283.2192
MEAN_ANOMALY   = 76.6982

EPHEMERIS_TYPE = 0
CLASSIFICATION_TYPE = U
NORAD_CAT_ID   = 20466
ELEMENT_SET_NO = 999
REV_AT_EPOCH   = 91308
BSTAR          = .61858E-4
MEAN_MOTION_DOT = .533E-5
MEAN_MOTION_DDOT = 0

CCSDS_OMM_VERS = 2.0
CREATION_DATE  = 
ORIGINATOR     = 

OBJECT_NAME    = SL-14 R/B
OBJECT_ID      = 1990-018B
CENTER_NAME    = EARTH
REF_FRAME      = TEME
TIME_SYSTEM    = UTC
MEAN_ELEMENT_THEORY = SGP/SGP4

EPOCH          = 2025-11-25T11:06:42.108768
MEAN_MOTION    = 14.82020512
ECCENTRICITY   = .0017954
INCLINATION    = 82.5199
RA_OF_ASC_NODE = 320.5147
ARG_OF_PERICENTER = 76.4587
MEAN_ANOMALY   = 283.8626

EPHEMERIS_TYPE = 0
CLASSIFICATION_TYPE = U
NORAD_CAT_ID   = 20511
ELEMENT_SET_NO = 999
REV_AT_EPOCH   = 90714
BSTAR          = .6992E-4
MEAN_MOTION_DOT = .58E-5
MEAN_MOTION_DDOT = 0

CCSDS_OMM_VERS = 2.0
CREATION_DATE  = 
ORIGINATOR     = 

OBJECT_NAME    = HST
OBJECT_ID      = 1990-037B
CENTER_NAME    = EARTH
REF_FRAME      = TEME
TIME_SYSTEM    = UTC
MEAN_ELEMENT_THEORY = SGP/SGP4

EPOCH          = 2025-11-25T11:34:51.182976
MEAN_MOTION    = 15.27702932
ECCENTRICITY   = .0002001
INCLINATION    = 28.4701
RA_OF_ASC_NODE = 29.9158
ARG_OF_PERICENTER = 58.7952
MEAN_ANOMALY   = 301.2839

EPHEMERIS_TYPE = 0
CLASSIFICATION_TYPE = U
NORAD_CAT_ID   = 20580
ELEMENT_SET_NO = 999
REV_AT_EPOCH   = 75735
BSTAR          = .31969E-3
MEAN_MOTION_DOT = .9134E-4
MEAN_MOTION_DDOT = 0

CCSDS_OMM_VERS = 2.0
CREATION_DATE  = 
ORIGINATOR     = 

OBJECT_NAME    = SL-16 R/B
OBJECT_ID      = 1990-046B
CENTER_NAME    = EARTH
REF_FRAME      = TEME
TIME_SYSTEM    = UTC
MEAN_ELEMENT_THEORY = SGP/SGP4

EPOCH          = 2025-11-25T18:42:45.849312
MEAN_MOTION    = 14.14992024
ECCENTRICITY   = .0012246
INCLINATION    = 70.9963
RA_OF_ASC_NODE = 156.1388
ARG_OF_PERICENTER = 105.0628
MEAN_ANOMALY   = 255.1850

EPHEMERIS_TYPE = 0
CLASSIFICATION_TYPE = U
NORAD_CAT_ID   = 20625
ELEMENT_SET_NO = 999
REV_AT_EPOCH   = 83369
BSTAR          = .15381E-3
MEAN_MOTION_DOT = .25E-5
MEAN_MOTION_DDOT = 0

CCSDS_OMM_VERS = 2.0
CREATION_DATE  = 
ORIGINATOR     = 

OBJECT_NAME    = COSMOS 2084
OBJECT_ID      = 1990-055A
CENTER_NAME    = EARTH
REF_FRAME      = TEME
TIME_SYSTEM    = UTC
MEAN_ELEMENT_THEORY = SGP/SGP4

EPOCH          = 2025-11-25T13:23:17.038176
MEAN_MOTION    = 15.04862052
ECCENTRICITY   = .0034438
INCLINATION    = 62.7910
RA_OF_ASC_NODE = 330.5312
ARG_OF_PERICENTER = 172.5921
MEAN_ANOMALY   = 187.5696

EPHEMERIS_TYPE = 0
CLASSIFICATION_TYPE = U
NORAD_CAT_ID   = 20663
ELEMENT_SET_NO = 999
REV_AT_EPOCH   = 92064
BSTAR          = .24742E-3
MEAN_MOTION_DOT = .3355E-4
MEAN_MOTION_DDOT = 0

CCSDS_OMM_VERS = 2.0
CREATION_DATE  = 
ORIGINATOR     = 

OBJECT_NAME    = SL-6 R/B(2)
OBJECT_ID      = 1990-055D
CENTER_NAME    = EARTH
REF_FRAME      = TEME
TIME_SYSTEM    = UTC
MEAN_ELEMENT_THEORY = SGP/SGP4

EPOCH          = 2025-11-25T17:39:01.569312
MEAN_MOTION    = 15.02961287
ECCENTRICITY   = .001133
INCLINATION    = 62.7830
RA_OF_ASC_NODE = 247.1873
ARG_OF_PERICENTER = 295.1265
MEAN_ANOMALY   = 64.8658

EPHEMERIS_TYPE = 0
CLASSIFICATION_TYPE = U
NORAD_CAT_ID   = 20666
ELEMENT_SET_NO = 999
REV_AT_EPOCH   = 92256
BSTAR          = .24035E-3
MEAN_MOTION_DOT = .3054E-4
MEAN_MOTION_DDOT = 0

CCSDS_OMM_VERS = 2.0
CREATION_DATE  = 
ORIGINATOR     = 

OBJECT_NAME    = SL-8 R/B
OBJECT_ID      = 1990-078B
CENTER_NAME    = EARTH
REF_FRAME      = TEME
TIME_SYSTEM    = UTC
MEAN_ELEMENT_THEORY = SGP/SGP4

EPOCH          = 2025-11-25T19:45:48.674592
MEAN_MOTION    = 14.84903531
ECCENTRICITY   = .0377408
INCLINATION    = 82.9053
RA_OF_ASC_NODE = 344.4400
ARG_OF_PERICENTER = 2.6799
MEAN_ANOMALY   = 357.6316

EPHEMERIS_TYPE = 0
CLASSIFICATION_TYPE = U
NORAD_CAT_ID   = 20775
ELEMENT_SET_NO = 999
REV_AT_EPOCH   = 79386
BSTAR          = .82671E-3
MEAN_MOTION_DOT = .26704E-3
MEAN_MOTION_DDOT = 0

CCSDS_OMM_VERS = 2.0
CREATION_DATE  = 
ORIGINATOR     = 

OBJECT_NAME    = SL-8 R/B
OBJECT_ID      = 1991-006B
CENTER_NAME    = EARTH
REF_FRAME      = TEME
TIME_SYSTEM    = UTC
MEAN_ELEMENT_THEORY = SGP/SGP4

EPOCH          = 2025-11-25T19:51:31.539168
MEAN_MOTION    = 13.77487153
ECCENTRICITY   = .0021889
INCLINATION    = 82.9429
RA_OF_ASC_NODE = 247.2916
ARG_OF_PERICENTER = 329.6987
MEAN_ANOMALY   = 96.5751

EPHEMERIS_TYPE = 0
CLASSIFICATION_TYPE = U
NORAD_CAT_ID   = 21088
ELEMENT_SET_NO = 999
REV_AT_EPOCH   = 74977
BSTAR          = .10512E-3
MEAN_MOTION_DOT = .12E-5
MEAN_MOTION_DDOT = 0

CCSDS_OMM_VERS = 2.0
CREATION_DATE  = 
ORIGINATOR     = 

OBJECT_NAME    = OKEAN-3
OBJECT_ID      = 1991-039A
CENTER_NAME    = EARTH
REF_FRAME      = TEME
TIME_SYSTEM    = UTC
MEAN_ELEMENT_THEORY = SGP/SGP4

EPOCH          = 2025-11-25T18:48:24.932160
MEAN_MOTION    = 15.03951373
ECCENTRICITY   = .0013904
INCLINATION    = 82.5175
RA_OF_ASC_NODE = 77.4557
ARG_OF_PERICENTER = 328.5717
MEAN_ANOMALY   = 31.4677

EPHEMERIS_TYPE = 0
CLASSIFICATION_TYPE = U
NORAD_CAT_ID   = 21397
ELEMENT_SET_NO = 999
REV_AT_EPOCH   = 84941
BSTAR          = .37835E-3
MEAN_MOTION_DOT = .5256E-4
MEAN_MOTION_DDOT = 0

